{
  "type": "FeatureCollection",
  "metadata": {
    "layer_name": "Critical Development Zones",
    "study_area": "Upper Beas Basin (Kullu\u2013Manali)",
    "timestamp": "2026-07-15T10:30:00Z",
    "feature_count": 7
  },
  "features": [
    {
      "type": "Feature",
      "geometry": {
        "type": "Polygon",
        "coordinates": [
          [
            [
              77.0925,
              31.96
            ],
            [
              77.125,
              31.96
            ],
            [
              77.125,
              32.0
            ],
            [
              77.0925,
              32.0
            ],
            [
              77.0925,
              31.96
            ]
          ]
        ]
      },
      "properties": {
        "zone_id": "CDZ_001",
        "zone_type": "CRITICAL_DEVELOPMENT_ZONE",
        "risk_category": "VERY_HIGH",
        "flood_risk": 0.756,
        "landslide_risk": 0.471,
        "development_pressure": 0.464,
        "development_hazard_risk": 0.413,
        "multi_hazard_risk": 0.859,
        "confidence": 0.98,
        "uncertainty": 0.02,
        "dominant_hazards": [
          "flash_flood"
        ],
        "observed_changes": [
          "construction_expansion",
          "riparian_encroachment"
        ],
        "contributing_features": [
          "low_lying_river_corridor_hand"
        ],
        "infrastructure_exposure": {
          "estimated_buildings": 55,
          "estimated_roads_km": 1.3,
          "critical_facilities": []
        },
        "last_observation": "2026-07-15T10:30:00Z",
        "model_version": "FLOODY_SHIELD_SATELLITE_V1.0"
      }
    },
    {
      "type": "Feature",
      "geometry": {
        "type": "Polygon",
        "coordinates": [
          [
            [
              77.125,
              31.96
            ],
            [
              77.1575,
              31.96
            ],
            [
              77.1575,
              32.0
            ],
            [
              77.125,
              32.0
            ],
            [
              77.125,
              31.96
            ]
          ]
        ]
      },
      "properties": {
        "zone_id": "CDZ_002",
        "zone_type": "CRITICAL_DEVELOPMENT_ZONE",
        "risk_category": "VERY_HIGH",
        "flood_risk": 0.745,
        "landslide_risk": 0.572,
        "development_pressure": 0.405,
        "development_hazard_risk": 0.363,
        "multi_hazard_risk": 0.863,
        "confidence": 0.98,
        "uncertainty": 0.02,
        "dominant_hazards": [
          "flash_flood",
          "landslide"
        ],
        "observed_changes": [
          "construction_expansion",
          "riparian_encroachment"
        ],
        "contributing_features": [
          "low_lying_river_corridor_hand"
        ],
        "infrastructure_exposure": {
          "estimated_buildings": 48,
          "estimated_roads_km": 1.1,
          "critical_facilities": []
        },
        "last_observation": "2026-07-15T10:30:00Z",
        "model_version": "FLOODY_SHIELD_SATELLITE_V1.0"
      }
    },
    {
      "type": "Feature",
      "geometry": {
        "type": "Polygon",
        "coordinates": [
          [
            [
              77.1575,
              31.96
            ],
            [
              77.19,
              31.96
            ],
            [
              77.19,
              32.0
            ],
            [
              77.1575,
              32.0
            ],
            [
              77.1575,
              31.96
            ]
          ]
        ]
      },
      "properties": {
        "zone_id": "CDZ_003",
        "zone_type": "CRITICAL_DEVELOPMENT_ZONE",
        "risk_category": "VERY_HIGH",
        "flood_risk": 0.773,
        "landslide_risk": 0.464,
        "development_pressure": 0.521,
        "development_hazard_risk": 0.469,
        "multi_hazard_risk": 0.878,
        "confidence": 0.98,
        "uncertainty": 0.02,
        "dominant_hazards": [
          "flash_flood"
        ],
        "observed_changes": [
          "construction_expansion",
          "riparian_encroachment"
        ],
        "contributing_features": [
          "low_lying_river_corridor_hand"
        ],
        "infrastructure_exposure": {
          "estimated_buildings": 62,
          "estimated_roads_km": 1.5,
          "critical_facilities": [
            "Primary_School"
          ]
        },
        "last_observation": "2026-07-15T10:30:00Z",
        "model_version": "FLOODY_SHIELD_SATELLITE_V1.0"
      }
    },
    {
      "type": "Feature",
      "geometry": {
        "type": "Polygon",
        "coordinates": [
          [
            [
              77.19,
              31.96
            ],
            [
              77.2225,
              31.96
            ],
            [
              77.2225,
              32.0
            ],
            [
              77.19,
              32.0
            ],
            [
              77.19,
              31.96
            ]
          ]
        ]
      },
      "properties": {
        "zone_id": "CDZ_004",
        "zone_type": "CRITICAL_DEVELOPMENT_ZONE",
        "risk_category": "VERY_HIGH",
        "flood_risk": 0.813,
        "landslide_risk": 0.28,
        "development_pressure": 0.283,
        "development_hazard_risk": 0.251,
        "multi_hazard_risk": 0.867,
        "confidence": 0.98,
        "uncertainty": 0.02,
        "dominant_hazards": [
          "flash_flood"
        ],
        "observed_changes": [
          "construction_expansion",
          "riparian_encroachment"
        ],
        "contributing_features": [
          "low_lying_river_corridor_hand"
        ],
        "infrastructure_exposure": {
          "estimated_buildings": 33,
          "estimated_roads_km": 0.8,
          "critical_facilities": []
        },
        "last_observation": "2026-07-15T10:30:00Z",
        "model_version": "FLOODY_SHIELD_SATELLITE_V1.0"
      }
    },
    {
      "type": "Feature",
      "geometry": {
        "type": "Polygon",
        "coordinates": [
          [
            [
              77.06,
              31.92
            ],
            [
              77.0925,
              31.92
            ],
            [
              77.0925,
              31.96
            ],
            [
              77.06,
              31.96
            ],
            [
              77.06,
              31.92
            ]
          ]
        ]
      },
      "properties": {
        "zone_id": "CDZ_005",
        "zone_type": "CRITICAL_DEVELOPMENT_ZONE",
        "risk_category": "VERY_HIGH",
        "flood_risk": 0.773,
        "landslide_risk": 0.354,
        "development_pressure": 0.2,
        "development_hazard_risk": 0.172,
        "multi_hazard_risk": 0.846,
        "confidence": 0.98,
        "uncertainty": 0.02,
        "dominant_hazards": [
          "flash_flood"
        ],
        "observed_changes": [
          "construction_expansion",
          "riparian_encroachment"
        ],
        "contributing_features": [
          "low_lying_river_corridor_hand"
        ],
        "infrastructure_exposure": {
          "estimated_buildings": 24,
          "estimated_roads_km": 0.6,
          "critical_facilities": []
        },
        "last_observation": "2026-07-15T10:30:00Z",
        "model_version": "FLOODY_SHIELD_SATELLITE_V1.0"
      }
    },
    {
      "type": "Feature",
      "geometry": {
        "type": "Polygon",
        "coordinates": [
          [
            [
              77.0925,
              31.92
            ],
            [
              77.125,
              31.92
            ],
            [
              77.125,
              31.96
            ],
            [
              77.0925,
              31.96
            ],
            [
              77.0925,
              31.92
            ]
          ]
        ]
      },
      "properties": {
        "zone_id": "CDZ_006",
        "zone_type": "CRITICAL_DEVELOPMENT_ZONE",
        "risk_category": "VERY_HIGH",
        "flood_risk": 0.663,
        "landslide_risk": 0.634,
        "development_pressure": 0.32,
        "development_hazard_risk": 0.278,
        "multi_hazard_risk": 0.846,
        "confidence": 0.98,
        "uncertainty": 0.02,
        "dominant_hazards": [
          "flash_flood",
          "landslide"
        ],
        "observed_changes": [
          "construction_expansion",
          "riparian_encroachment"
        ],
        "contributing_features": [
          "low_lying_river_corridor_hand",
          "steep_colluvial_slope_35_50deg"
        ],
        "infrastructure_exposure": {
          "estimated_buildings": 38,
          "estimated_roads_km": 0.9,
          "critical_facilities": [
            "Primary_School"
          ]
        },
        "last_observation": "2026-07-15T10:30:00Z",
        "model_version": "FLOODY_SHIELD_SATELLITE_V1.0"
      }
    },
    {
      "type": "Feature",
      "geometry": {
        "type": "Polygon",
        "coordinates": [
          [
            [
              77.1575,
              31.92
            ],
            [
              77.19,
              31.92
            ],
            [
              77.19,
              31.96
            ],
            [
              77.1575,
              31.96
            ],
            [
              77.1575,
              31.92
            ]
          ]
        ]
      },
      "properties": {
        "zone_id": "CDZ_007",
        "zone_type": "CRITICAL_DEVELOPMENT_ZONE",
        "risk_category": "VERY_HIGH",
        "flood_risk": 0.724,
        "landslide_risk": 0.343,
        "development_pressure": 0.361,
        "development_hazard_risk": 0.296,
        "multi_hazard_risk": 0.812,
        "confidence": 0.98,
        "uncertainty": 0.02,
        "dominant_hazards": [
          "flash_flood"
        ],
        "observed_changes": [
          "construction_expansion",
          "riparian_encroachment"
        ],
        "contributing_features": [
          "low_lying_river_corridor_hand"
        ],
        "infrastructure_exposure": {
          "estimated_buildings": 43,
          "estimated_roads_km": 1.0,
          "critical_facilities": []
        },
        "last_observation": "2026-07-15T10:30:00Z",
        "model_version": "FLOODY_SHIELD_SATELLITE_V1.0"
      }
    }
  ]
}