{
  "type": "FeatureCollection",
  "features": [
    {
      "type": "Feature",
      "geometry": {
        "type": "Polygon",
        "coordinates": [
          [
            [
              77.21300000000001,
              31.720000000000002
            ],
            [
              77.223,
              31.720000000000002
            ],
            [
              77.223,
              31.73
            ],
            [
              77.21300000000001,
              31.73
            ],
            [
              77.21300000000001,
              31.720000000000002
            ]
          ]
        ]
      },
      "properties": {
        "dam_id": "ND_BEAS_001",
        "surface_area_m2": 138000.0,
        "estimated_volume_m3": 1610000.0
      }
    }
  ]
}